[{"OBJECT_NAME":"TIANMU-1 19","OBJECT_ID":"2023-208A","EPOCH":"2026-03-09T22:13:36.801696","MEAN_MOTION":15.2984143,"ECCENTRICITY":0.00039292,"INCLINATION":97.4383,"RA_OF_ASC_NODE":184.9132,"ARG_OF_PERICENTER":316.2611,"MEAN_ANOMALY":43.8317,"EPHEMERIS_TYPE":0,"CLASSIFICATION_TYPE":"U","NORAD_CAT_ID":58660,"ELEMENT_SET_NO":999,"REV_AT_EPOCH":12214,"BSTAR":0.00040995676,"MEAN_MOTION_DOT":0.00011779,"MEAN_MOTION_DDOT":0},{"OBJECT_NAME":"STARLINK-35403","OBJECT_ID":"2025-235Z","EPOCH":"2026-03-09T19:20:42.203328","MEAN_MOTION":15.30204054,"ECCENTRICITY":0.00010172,"INCLINATION":53.1594,"RA_OF_ASC_NODE":244.413,"ARG_OF_PERICENTER":94.1706,"MEAN_ANOMALY":265.9411,"EPHEMERIS_TYPE":0,"CLASSIFICATION_TYPE":"U","NORAD_CAT_ID":66081,"ELEMENT_SET_NO":999,"REV_AT_EPOCH":2294,"BSTAR":0.0007062888,"MEAN_MOTION_DOT":0.0002062,"MEAN_MOTION_DDOT":0}]
